NORAD_CAT_ID,OBJECT_NAME,OBJECT_TYPE,EPOCH,MEAN_MOTION,ECCENTRICITY,INCLINATION,RA_OF_ASC_NODE,ARG_OF_PERICENTER,MEAN_ANOMALY,BSTAR,MEAN_MOTION_DOT,MEAN_MOTION_DDOT,TLE_LINE0,TLE_LINE1,TLE_LINE2,SEMIMAJOR_AXIS,PERIOD,APOGEE,PERIGEE,DECAYED
51732.0,STARLINK-3518,PAYLOAD,2022-12-01 13:16:52,15.08839369,0.0002788999999999,53.2163,279.823,32.313,327.8033,2.1086e-05,4.7e-07,0.0,0 STARLINK-3518,1 51732U 22016U   22335.55338360  .00000047  00000-0  21086-4 0  9999,2 51732  53.2163 279.8230 0002789  32.3130 327.8033 15.08839369 44432,6917.882,95.438,541.677,537.818,0.0
51732.0,STARLINK-3518,PAYLOAD,2022-12-02 05:10:43,15.08860125,0.0002732,53.2154,276.8486,33.7016,326.4149,0.0005125,7.882e-05,0.0,0 STARLINK-3518,1 51732U 22016U   22336.21577626  .00007882  00000-0  51250-3 0  9992,2 51732  53.2154 276.8486 0002732  33.7016 326.4149 15.08860125 44536,6917.819,95.436,541.5740000000002,537.794,0.0
51732.0,STARLINK-3518,PAYLOAD,2022-12-02 13:07:38,15.08851618,0.0002666,53.215,275.3621,31.3356,328.7795,0.000242,3.566e-05,0.0,0 STARLINK-3518,1 51732U 22016U   22336.54697538  .00003566  00000-0  24200-3 0  9993,2 51732  53.2150 275.3621 0002666  31.3356 328.7795 15.08851618 44588,6917.845,95.437,541.554,537.866,0.0
51732.0,STARLINK-3518,PAYLOAD,2022-12-03 05:01:30,15.08839456,0.0002379,53.2147,272.3882,28.1991,331.9129,0.00011201,1.495e-05,0.0,0 STARLINK-3518,1 51732U 22016U   22337.20937705  .00001495  00000-0  11201-3 0  9996,2 51732  53.2147 272.3882 0002379  28.1991 331.9129 15.08839456 44684,6917.882,95.438,541.393,538.101,0.0
51732.0,STARLINK-3518,PAYLOAD,2022-12-03 12:58:26,15.08823526,0.0002729,53.2147,270.9013,33.3881,326.7282,-1.9458e-06,-3.19e-06,0.0,0 STARLINK-3518,1 51732U 22016U   22337.54058412 -.00000319  00000-0 -19458-5 0  9992,2 51732  53.2147 270.9013 0002729  33.3881 326.7282 15.08823526 44738,6917.931,95.439,541.684,537.908,0.0
51732.0,STARLINK-3518,PAYLOAD,2022-12-03 19:19:59,15.08825453,0.0002658,53.2154,269.7118,29.8451,330.2692,0.00032919,4.953e-05,0.0,0 STARLINK-3518,1 51732U 22016U   22337.80554674  .00004953  00000-0  32919-3 0  9993,2 51732  53.2154 269.7118 0002658  29.8451 330.2692 15.08825453 44772,6917.925,95.438,541.629,537.951,0.0
51732.0,STARLINK-3518,PAYLOAD,2022-12-04 12:49:13,15.08841494,0.0002676,53.2159,266.4414,28.8597,331.2543,0.00052451,8.070000000000001e-05,0.0,0 STARLINK-3518,1 51732U 22016U   22338.53418906  .00008070  00000-0  52451-3 0  9998,2 51732  53.2159 266.4414 0002676  28.8597 331.2543 15.08841494 44881,6917.876,95.437,541.592,537.89,0.0
51732.0,STARLINK-3518,PAYLOAD,2022-12-04 19:10:46,15.08837345,0.0002748,53.2157,265.2515,32.445,327.6711,0.00031705,4.761e-05,0.0,0 STARLINK-3518,1 51732U 22016U   22338.79915110  .00004761  00000-0  31705-3 0  9997,2 51732  53.2157 265.2515 0002748  32.4450 327.6711 15.08837345 44928,6917.889,95.438,541.655,537.852,0.0
51732.0,STARLINK-3518,PAYLOAD,2022-12-05 01:32:19,15.08840795,0.0002761,53.2166,264.0615,35.0046,325.1127,0.00032168,4.835e-05,0.0,0 STARLINK-3518,1 51732U 22016U   22339.06411098  .00004835  00000-0  32168-3 0  9990,2 51732  53.2166 264.0615 0002761  35.0046 325.1127 15.08840795 44962,6917.878000000002,95.438,541.653,537.8330000000002,0.0
51732.0,STARLINK-3518,PAYLOAD,2022-12-05 04:43:05,15.08840339,0.0002698,53.2166,263.4665,34.3926,325.724,0.00035173,5.314e-05,0.0,0 STARLINK-3518,1 51732U 22016U   22339.19659127  .00005314  00000-0  35173-3 0  9993,2 51732  53.2166 263.4665 0002698  34.3926 325.7240 15.08840339 44986,6917.879,95.438,541.611,537.878,0.0
51732.0,STARLINK-3518,PAYLOAD,2022-12-06 04:33:51,15.08857561,0.0002786,53.2166,259.0068,33.6831,326.4338,0.00039524,6.011e-05,0.0,0 STARLINK-3518,1 51732U 22016U   22340.19018116  .00006011  00000-0  39524-3 0  9991,2 51732  53.2166 259.0068 0002786  33.6831 326.4338 15.08857561 45138,6917.8269999999975,95.436,541.619,537.764,0.0
51732.0,STARLINK-3518,PAYLOAD,2022-12-06 06:09:14,15.08857288,0.0002797,53.2166,258.7094,33.4192,326.6976,0.00033305,5.019e-05,0.0,0 STARLINK-3518,1 51732U 22016U   22340.25642030  .00005019  00000-0  33305-3 0  9994,2 51732  53.2166 258.7094 0002797  33.4192 326.6976 15.08857288 45140,6917.828,95.436,541.627,537.758,0.0
51732.0,STARLINK-3518,PAYLOAD,2022-12-06 20:27:43,15.08839952,0.0002721,53.2165,256.0332,32.423,327.6929,-6.311e-05,-1.293e-05,0.0,0 STARLINK-3518,1 51732U 22016U   22340.85258440 -.00001293  00000-0 -63110-4 0  9998,2 51732  53.2165 256.0332 0002721  32.4230 327.6929 15.08839952 45231,6917.880999999999,95.438,541.628,537.863,0.0
51732.0,STARLINK-3518,PAYLOAD,2022-12-06 22:03:06,15.08837983,0.0002688,53.2166,255.7357,31.6171,328.4982,-0.00010643,-1.982e-05,0.0,0 STARLINK-3518,1 51732U 22016U   22340.91882495 -.00001982  00000-0 -10643-3 0  9995,2 51732  53.2166 255.7357 0002688  31.6171 328.4982 15.08837983 45243,6917.887,95.438,541.611,537.8919999999998,0.0
51732.0,STARLINK-3518,PAYLOAD,2022-12-07 18:43:07,15.08834494,0.0002758,53.2158,251.8698,33.0664,327.05,4.1029e-05,3.64e-06,0.0,0 STARLINK-3518,1 51732U 22016U   22341.77995050  .00000364  00000-0  41029-4 0  9996,2 51732  53.2158 251.8698 0002758  33.0664 327.0500 15.08834494 45379,6917.897,95.438,541.67,537.854,0.0
51732.0,STARLINK-3518,PAYLOAD,2022-12-08 01:04:39,15.08847811,0.0002671,53.216,250.6802,35.21,324.9068,0.00029648,4.434e-05,0.0,0 STARLINK-3518,1 51732U 22016U   22342.04490696  .00004434  00000-0  29648-3 0  9997,2 51732  53.2160 250.6802 0002671  35.2100 324.9068 15.08847811 45416,6917.857,95.437,541.569,537.874,0.0
51732.0,STARLINK-3518,PAYLOAD,2022-12-08 10:36:58,15.08866057,0.0002723999999999,53.2161,248.8966,30.6227,329.4924,0.0012175,0.00019156,0.0,0 STARLINK-3518,1 51732U 22016U   22342.44234413  .00019156  00000-0  12175-2 0  9997,2 51732  53.2161 248.8966 0002724  30.6227 329.4924 15.08866057 45475,6917.801,95.436,541.55,537.781,0.0
51732.0,STARLINK-3518,PAYLOAD,2022-12-09 00:55:25,15.08869015,0.0002663,53.2162,246.2211,30.8004,329.3144,0.00045218,6.921e-05,0.0,0 STARLINK-3518,1 51732U 22016U   22343.03849481  .00006921  00000-0  45218-3 0  9991,2 51732  53.2162 246.2211 0002663  30.8004 329.3144 15.08869015 45568,6917.792,95.436,541.499,537.814,0.0
51732.0,STARLINK-3518,PAYLOAD,2022-12-09 04:06:11,15.08872506,0.0002682,53.2154,245.6256,26.8786,333.2344,0.00061412,9.508e-05,0.0,0 STARLINK-3518,1 51732U 22016U   22343.17097215  .00009508  00000-0  61412-3 0  9994,2 51732  53.2154 245.6256 0002682  26.8786 333.2344 15.08872506 45581,6917.781,95.435,541.501,537.7909999999998,0.0
51732.0,STARLINK-3518,PAYLOAD,2022-12-09 21:35:27,15.08822965,0.0002364,53.2154,242.355,32.2241,327.8895,-0.00019271,-3.353e-05,0.0,0 STARLINK-3518,1 51732U 22016U   22343.89962594 -.00003353  00000-0 -19271-3 0  9994,2 51732  53.2154 242.3550 0002364  32.2241 327.8895 15.08822965 45692,6917.932,95.439,541.433,538.1619999999998,0.0
51732.0,STARLINK-3518,PAYLOAD,2022-12-10 02:21:37,15.08803374,0.0002782,53.2152,241.463,28.7448,331.3697,-0.00037608,-6.263e-05,0.0,0 STARLINK-3518,1 51732U 22016U   22344.09835315 -.00006263  00000-0 -37608-3 0  9994,2 51732  53.2152 241.4630 0002782  28.7448 331.3697 15.08803374 45729,6917.9919999999975,95.44,541.7819999999998,537.933,0.0
51732.0,STARLINK-3518,PAYLOAD,2022-12-11 03:47:48,15.08854295,0.000275,53.2145,236.7065,27.4992,332.6145,0.001332,0.00020983,0.0,0 STARLINK-3518,1 51732U 22016U   22345.15820091  .00020983  00000-0  13320-2 0  9994,2 51732  53.2145 236.7065 0002750  27.4992 332.6145 15.08854295 45882,6917.837,95.437,541.604,537.799,0.0
51732.0,STARLINK-3518,PAYLOAD,2022-12-11 21:17:02,15.08855068,0.0002681,53.215,233.4306,37.1804,322.9373,0.0010862,0.00017049,0.0,0 STARLINK-3518,1 51732U 22016U   22345.88684023  .00017049  00000-0  10862-2 0  9994,2 51732  53.2150 233.4306 0002681  37.1804 322.9373 15.08855068 45999,6917.834,95.437,541.554,537.845,0.0
51732.0,STARLINK-3518,PAYLOAD,2022-12-11 22:52:25,15.08859362,0.0002557,53.2155,233.1328,35.4669,324.6492,0.00044169,6.752e-05,0.0,0 STARLINK-3518,1 51732U 22016U   22345.95307812  .00006752  00000-0  44169-3 0  9997,2 51732  53.2155 233.1328 0002557  35.4669 324.6492 15.08859362 46002,6917.821,95.436,541.455,537.9169999999998,0.0
51732.0,STARLINK-3518,PAYLOAD,2022-12-13 01:53:59,15.08841235,0.0002714,53.2143,228.0821,30.4263,329.6886,0.00030275,4.533e-05,0.0,0 STARLINK-3518,1 51732U 22016U   22347.07916058  .00004533  00000-0  30275-3 0  9998,2 51732  53.2143 228.0821 0002714  30.4263 329.6886 15.08841235 46170,6917.877,95.437,541.619,537.864,0.0
51732.0,STARLINK-3518,PAYLOAD,2022-12-14 06:30:55,15.08847294,0.0002742,53.2147,222.7281,31.0812,329.0342,0.00017283,2.464e-05,0.0,0 STARLINK-3518,1 51732U 22016U   22348.27147769  .00002464  00000-0  17283-3 0  9991,2 51732  53.2147 222.7281 0002742  31.0812 329.0342 15.08847294 46355,6917.858,95.437,541.62,537.826,0.0
51732.0,STARLINK-3518,PAYLOAD,2022-12-15 07:57:05,15.08846097,0.0002827,53.2151,217.9704,29.8788,330.2365,0.00012347,1.677e-05,0.0,0 STARLINK-3518,1 51732U 22016U   22349.33131539  .00001677  00000-0  12347-3 0  9998,2 51732  53.2151 217.9704 0002827  29.8788 330.2365 15.08846097 46514,6917.861999999999,95.437,541.682,537.771,0.0
51732.0,STARLINK-3518,PAYLOAD,2022-12-15 11:07:52,15.08841813,0.0002785,53.2149,217.3766,30.1095,330.0057,7.3788e-05,8.86e-06,0.0,0 STARLINK-3518,1 51732U 22016U   22349.46379713  .00000886  00000-0  73788-4 0  9998,2 51732  53.2149 217.3766 0002785  30.1095 330.0057 15.08841813 46531,6917.875,95.437,541.6659999999998,537.813,0.0
51732.0,STARLINK-3518,PAYLOAD,2022-12-15 20:40:10,15.08841857,0.0002712,53.2157,215.5923,29.8951,330.2196,4.408300000000001e-05,4.13e-06,0.0,0 STARLINK-3518,1 51732U 22016U   22349.86123772  .00000413  00000-0  44083-4 0  9996,2 51732  53.2157 215.5923 0002712  29.8951 330.2196 15.08841857 46591,6917.875,95.437,541.616,537.864,0.0
